[
  {
    "name": "DIWATA-2B",
    "line1": "1 43678U 18084H   26172.50455841  .00001869  00000+0  15345-3 0  9993",
    "line2": "2 43678  98.1194   8.9000 0012857 156.4767 203.7046 15.00468688416861"
  },
  {
    "name": "ES'HAIL 2",
    "line1": "1 43700U 18090A   26171.32582803  .00000139  00000+0  00000+0 0  9991",
    "line2": "2 43700   0.0162  58.1464 0001829  66.6264 286.8419  1.00272471 27701"
  },
  {
    "name": "GOES 17",
    "line1": "1 43226U 18022A   26171.38933449 -.00000187  00000+0  00000+0 0  9995",
    "line2": "2 43226   0.9463  85.6559 0000598  28.1563 205.4138  1.00269480 30451"
  },
  {
    "name": "S-NET D",
    "line1": "1 43186U 18014G   26171.29880828  .00004087  00000+0  21192-3 0  9994",
    "line2": "2 43186  97.5356  76.0698 0008631  20.4965 339.6613 15.16696846459235"
  },
  {
    "name": "S-NET B",
    "line1": "1 43187U 18014H   26171.44227345  .00003824  00000+0  19866-3 0  9994",
    "line2": "2 43187  97.5362  76.1989 0009101  14.9277 345.2223 15.16668142459254"
  },
  {
    "name": "S-NET A",
    "line1": "1 43188U 18014J   26171.29766920  .00004140  00000+0  21459-3 0  9998",
    "line2": "2 43188  97.5373  76.2647 0008975  16.0073 344.1441 15.16704943459232"
  },
  {
    "name": "S-NET C",
    "line1": "1 43189U 18014K   26171.31421336  .00003742  00000+0  19448-3 0  9993",
    "line2": "2 43189  97.5390  76.3562 0010128   7.5265 352.6118 15.16659336457788"
  },
  {
    "name": "PAZ",
    "line1": "1 43215U 18020A   26172.52018552  .00001392  00000+0  69487-4 0  9994",
    "line2": "2 43215  97.4453 179.8444 0001696  88.2261 271.9168 15.19149808461668"
  },
  {
    "name": "LKW-4",
    "line1": "1 43236U 18025A   26171.47381377  .00037380  00000+0  42047-3 0  9991",
    "line2": "2 43236  97.6353 342.6049 0001991 272.5428  87.5601 15.62504246460542"
  },
  {
    "name": "ZHUHAI-1 OVS-02",
    "line1": "1 43440U 18040B   26172.49643162  .00005435  00000+0  21998-3 0  9999",
    "line2": "2 43440  97.0390 189.4705 0002200 209.5685 150.5430 15.25072832453373"
  },
  {
    "name": "ZHUHAI-1 OHS-02",
    "line1": "1 43441U 18040C   26172.54467840  .00006419  00000+0  25252-3 0  9993",
    "line2": "2 43441  97.0372 196.4598 0008587 202.6979 157.3882 15.25933837114940"
  },
  {
    "name": "GAOFEN-6",
    "line1": "1 43484U 18048A   26172.54358654  .00001061  00000+0  15912-3 0  9990",
    "line2": "2 43484  97.9704 235.2358 0011981 151.9103 208.2756 14.76604265434034"
  },
  {
    "name": "LUOJIA-1 01",
    "line1": "1 43485U 18048B   26172.54728794  .00001214  00000+0  14046-3 0  9994",
    "line2": "2 43485  97.8097 250.6653 0010346 105.1393 255.0969 14.87296847434866"
  },
  {
    "name": "PAKTES 1A",
    "line1": "1 43529U 18056A   26172.47676644  .00001069  00000+0  92962-4 0  9992",
    "line2": "2 43529  98.1304 329.1469 0021802  92.9585 267.4132 14.99116197432568"
  },
  {
    "name": "PRSS-1",
    "line1": "1 43530U 18056B   26172.51102007  .00000586  00000+0  80299-4 0  9999",
    "line2": "2 43530  97.7815 240.2615 0001582  76.7708 283.3682 14.81994645429070"
  },
  {
    "name": "HAIYANG-1C",
    "line1": "1 43609U 18068A   26172.50077397  .00000360  00000+0  14404-3 0  9995",
    "line2": "2 43609  98.5184 244.7470 0012131  82.9360 277.3204 14.34181088407704"
  },
  {
    "name": "SSTL S1-4",
    "line1": "1 43618U 18071A   26172.56915878  .00000314  00000+0  32729-4 0  9990",
    "line2": "2 43618  97.5014  44.0005 0001333 116.5212 243.6147 14.96182009423591"
  },
  {
    "name": "HAIYANG-2B",
    "line1": "1 43655U 18081A   26172.51533058 -.00000048  00000+0 -40341-5 0  9999",
    "line2": "2 43655  99.3286 181.2067 0000188   0.1386 359.9766 13.79307105385526"
  },
  {
    "name": "CZ-4B R/B",
    "line1": "1 43656U 18081B   26171.39946817  .00000050  00000+0  32813-4 0  9991",
    "line2": "2 43656  99.3677  89.5812 0203737 257.4755 100.3568 14.31866791399760"
  },
  {
    "name": "CFOSAT",
    "line1": "1 43662U 18083A   26171.45921616  .00002397  00000+0  12676-3 0  9997",
    "line2": "2 43662  97.3606 175.8934 0002410  88.4957 271.6552 15.16391115422930"
  },
  {
    "name": "TEN-KOH",
    "line1": "1 43677U 18084G   26171.45254676  .00001314  00000+0  10266-3 0  9990",
    "line2": "2 43677  98.0770   3.9542 0011523 104.7855 255.4646 15.02952458416650"
  },
  {
    "name": "STARS-AO",
    "line1": "1 43679U 18084J   26170.57998705  .00004324  00000+0  22217-3 0  9995",
    "line2": "2 43679  98.0497  24.6984 0003033 131.9417 228.2074 15.17074017417837"
  },
  {
    "name": "AUTCUBE 2",
    "line1": "1 43681U 18084K   26170.28451047  .00002446  00000+0  15440-3 0  9992",
    "line2": "2 43681  98.0708  16.5700 0009901  43.1941 317.0062 15.10102080417241"
  },
  {
    "name": "METOP-C",
    "line1": "1 43689U 18087A   26171.44664144  .00000064  00000+0  49212-4 0  9995",
    "line2": "2 43689  98.6643 230.9907 0001880 125.1991 234.9363 14.21512882395295"
  },
  {
    "name": "MOHAMMED VI-B",
    "line1": "1 43717U 18095A   26172.51225661  .00000996  00000+0  14814-3 0  9995",
    "line2": "2 43717  97.9552 244.7788 0001420 100.2609 259.8761 14.77124126408821"
  },
  {
    "name": "HYSIS",
    "line1": "1 43719U 18096A   26172.54243125  .00000750  00000+0  10958-3 0  9999",
    "line2": "2 43719  97.9834 239.2567 0001791  96.3154 263.8261 14.78623542408064"
  },
  {
    "name": "COSMOS 2530 (RODNIK-S *)",
    "line1": "1 43751U 18097A   26172.48210090 -.00000073  00000+0 -59773-3 0  9992",
    "line2": "2 43751  82.5130 219.6155 0020003  30.6289 329.5954 12.42881099342823"
  },
  {
    "name": "COSMOS 2531 (RODNIK-S *)",
    "line1": "1 43752U 18097B   26172.50427115 -.00000114  00000+0 -89463-3 0  9999",
    "line2": "2 43752  82.5176 220.6617 0017548  49.5970 310.6638 12.42912356342848"
  },
  {
    "name": "COSMOS 2532 (RODNIK-S *)",
    "line1": "1 43753U 18097C   26172.53255565  .00000001  00000+0 -61789-4 0  9997",
    "line2": "2 43753  82.5120 219.4282 0018966  51.2692 309.0079 12.42909960342813"
  },
  {
    "name": "MINXSS-2",
    "line1": "1 43758U 18099A   26171.45535390  .00031099  00000+0  61393-3 0  9991",
    "line2": "2 43758  97.4527 247.8358 0006930 241.7102 118.3448 15.47086323414631"
  },
  {
    "name": "SIRION PATHFINDER-2",
    "line1": "1 43759U 18099B   26170.69233594  .00004059  00000+0  22350-3 0  9994",
    "line2": "2 43759  97.4247 219.6903 0007157 293.9955  66.0528 15.14565833413001"
  }
]