OBJECT_NAME,OBJECT_ID,EPOCH,MEAN_MOTION,ECCENTRICITY,INCLINATION,RA_OF_ASC_NODE,ARG_OF_PERICENTER,MEAN_ANOMALY,EPHEMERIS_TYPE,CLASSIFICATION_TYPE,NORAD_CAT_ID,ELEMENT_SET_NO,REV_AT_EPOCH,BSTAR,MEAN_MOTION_DOT,MEAN_MOTION_DDOT
S-NET D,2018-014G,2026-06-20T07:10:17.035392,15.16696846,.0008631,97.5356,76.0698,20.4965,339.6613,0,U,43186,999,45923,.21192E-3,.4087E-4,0
S-NET B,2018-014H,2026-06-20T10:36:52.426080,15.16668142,.0009101,97.5362,76.1989,14.9277,345.2223,0,U,43187,999,45925,.19866E-3,.3824E-4,0
S-NET A,2018-014J,2026-06-20T07:08:38.618880,15.16704943,.0008975,97.5373,76.2647,16.0073,344.1441,0,U,43188,999,45923,.21459E-3,.414E-4,0
S-NET C,2018-014K,2026-06-20T07:32:28.034304,15.16659336,.0010128,97.5390,76.3562,7.5265,352.6118,0,U,43189,999,45778,.19448E-3,.3742E-4,0
PAZ,2018-020A,2026-06-21T12:29:04.028928,15.19149808,.0001696,97.4453,179.8444,88.2261,271.9168,0,U,43215,999,46166,.69487E-4,.1392E-4,0
GOES 17,2018-022A,2026-06-20T09:20:38.499936,1.00269480,.0000598,0.9463,85.6559,28.1563,205.4138,0,U,43226,999,3045,0,-.187E-5,0
LKW-4,2018-025A,2026-06-20T11:22:17.509728,15.62504246,.0001991,97.6353,342.6049,272.5428,87.5601,0,U,43236,999,46054,.42047E-3,.3738E-3,0
ZHUHAI-1 OVS-02,2018-040B,2026-06-21T11:54:51.691968,15.25072832,.00022,97.0390,189.4705,209.5685,150.5430,0,U,43440,999,45337,.21998E-3,.5435E-4,0
ZHUHAI-1 OHS-02,2018-040C,2026-06-21T13:04:20.213760,15.25933837,.0008587,97.0372,196.4598,202.6979,157.3882,0,U,43441,999,11494,.25252E-3,.6419E-4,0
GAOFEN-6,2018-048A,2026-06-21T13:02:45.877056,14.76604265,.0011981,97.9704,235.2358,151.9103,208.2756,0,U,43484,999,43403,.15912E-3,.1061E-4,0
LUOJIA-1 01,2018-048B,2026-06-21T13:08:05.678016,14.87296847,.0010346,97.8097,250.6653,105.1393,255.0969,0,U,43485,999,43486,.14046E-3,.1214E-4,0
PAKTES 1A,2018-056A,2026-06-21T11:26:32.620416,14.99116197,.0021802,98.1304,329.1469,92.9585,267.4132,0,U,43529,999,43256,.92962E-4,.1069E-4,0
PRSS-1,2018-056B,2026-06-21T12:15:52.134048,14.81994645,.0001582,97.7815,240.2615,76.7708,283.3682,0,U,43530,999,42907,.80299E-4,.586E-5,0
HAIYANG-1C,2018-068A,2026-06-21T12:01:06.871008,14.34181088,.0012131,98.5184,244.7470,82.9360,277.3204,0,U,43609,999,40770,.14404E-3,.36E-5,0
SSTL S1-4,2018-071A,2026-06-21T13:39:35.318592,14.96182009,.0001333,97.5014,44.0005,116.5212,243.6147,0,U,43618,999,42359,.32729E-4,.314E-5,0
HAIYANG-2B,2018-081A,2026-06-21T12:22:04.562112,13.79307105,.0000188,99.3286,181.2067,0.1386,359.9766,0,U,43655,999,38552,-.40341E-5,-.48E-6,0
CZ-4B R/B,2018-081B,2026-06-20T09:35:14.049888,14.31866791,.0203737,99.3677,89.5812,257.4755,100.3568,0,U,43656,999,39976,.32813E-4,.5E-6,0
CFOSAT,2018-083A,2026-06-20T11:01:16.276224,15.16391115,.000241,97.3606,175.8934,88.4957,271.6552,0,U,43662,999,42293,.12676E-3,.2397E-4,0
TEN-KOH,2018-084G,2026-06-20T10:51:40.040064,15.02952458,.0011523,98.0770,3.9542,104.7855,255.4646,0,U,43677,999,41665,.10266E-3,.1314E-4,0
DIWATA-2B,2018-084H,2026-06-21T12:06:33.846624,15.00468688,.0012857,98.1194,8.9000,156.4767,203.7046,0,U,43678,999,41686,.15345E-3,.1869E-4,0
STARS-AO,2018-084J,2026-06-19T13:55:10.881120,15.17074017,.00030339,98.0497,24.6984,131.9417,228.2074,0,U,43679,999,41783,.22217157E-3,.4324E-4,0
AUTCUBE 2,2018-084K,2026-06-19T06:49:41.704608,15.10102080,.00099013,98.0708,16.5700,43.1941,317.0062,0,U,43681,999,41724,.15440469E-3,.2446E-4,0
METOP-C,2018-087A,2026-06-20T10:43:09.820416,14.21512882,.000188,98.6643,230.9907,125.1991,234.9363,0,U,43689,999,39529,.49212E-4,.64E-6,0
ES'HAIL 2,2018-090A,2026-06-20T07:49:11.541792,1.00272471,.0001829,0.0162,58.1464,66.6264,286.8419,0,U,43700,999,2770,0,.139E-5,0
MOHAMMED VI-B,2018-095A,2026-06-21T12:17:38.971104,14.77124126,.000142,97.9552,244.7788,100.2609,259.8761,0,U,43717,999,40882,.14814E-3,.996E-5,0
HYSIS,2018-096A,2026-06-21T13:01:06.060000,14.78623542,.0001791,97.9834,239.2567,96.3154,263.8261,0,U,43719,999,40806,.10958E-3,.75E-5,0
COSMOS 2530 (RODNIK-S 16),2018-097A,2026-06-21T11:34:13.517760,12.42881099,.0020003,82.5130,219.6155,30.6289,329.5954,0,U,43751,999,34282,-.59773E-3,-.73E-6,0
COSMOS 2531 (RODNIK-S 17),2018-097B,2026-06-21T12:06:09.027360,12.42912356,.0017548,82.5176,220.6617,49.5970,310.6638,0,U,43752,999,34284,-.89463E-3,-.114E-5,0
COSMOS 2532 (RODNIK-S 18),2018-097C,2026-06-21T12:46:52.808160,12.42909960,.0018966,82.5120,219.4282,51.2692,309.0079,0,U,43753,999,34281,-.61789E-4,.1E-7,0
MINXSS-2,2018-099A,2026-06-20T10:55:42.576960,15.47086323,.000693,97.4527,247.8358,241.7102,118.3448,0,U,43758,999,41463,.61393E-3,.31099E-3,0
SIRION PATHFINDER-2,2018-099B,2026-06-19T16:36:57.825216,15.14565833,.00071576,97.4247,219.6903,293.9955,66.0528,0,U,43759,999,41300,.22349746E-3,.4059E-4,0
